[{"OBJECT_NAME":"SKYKRAFT-1A","OBJECT_ID":"2023-001AX","EPOCH":"2026-03-09T17:03:19.828224","MEAN_MOTION":15.28083228,"ECCENTRICITY":0.00112767,"INCLINATION":97.3349,"RA_OF_ASC_NODE":127.629,"ARG_OF_PERICENTER":121.5092,"MEAN_ANOMALY":238.7251,"EPHEMERIS_TYPE":0,"CLASSIFICATION_TYPE":"U","NORAD_CAT_ID":55054,"ELEMENT_SET_NO":999,"REV_AT_EPOCH":17652,"BSTAR":0.0003006872,"MEAN_MOTION_DOT":8.177e-5,"MEAN_MOTION_DDOT":0},{"OBJECT_NAME":"STARLINK-35960","OBJECT_ID":"2025-265R","EPOCH":"2026-03-09T22:15:31.870080","MEAN_MOTION":15.2760493,"ECCENTRICITY":0.00010442,"INCLINATION":43.0004,"RA_OF_ASC_NODE":276.261,"ARG_OF_PERICENTER":312.8157,"MEAN_ANOMALY":47.2607,"EPHEMERIS_TYPE":0,"CLASSIFICATION_TYPE":"U","NORAD_CAT_ID":66531,"ELEMENT_SET_NO":999,"REV_AT_EPOCH":1715,"BSTAR":0.0011443107,"MEAN_MOTION_DOT":0.00031385,"MEAN_MOTION_DDOT":0}]
